CCSDS_OMM_VERS = 2.0
CREATION_DATE  = 
ORIGINATOR     = 

OBJECT_NAME    = STARLINK-35810
OBJECT_ID      = 2025-268U
CENTER_NAME    = EARTH
REF_FRAME      = TEME
TIME_SYSTEM    = UTC
MEAN_ELEMENT_THEORY = SGP/SGP4

EPOCH          = 2025-12-06T14:00:01.999872
MEAN_MOTION    = 15.62107609
ECCENTRICITY   = .00015145
INCLINATION    = 42.9998
RA_OF_ASC_NODE = 157.2486
ARG_OF_PERICENTER = 258.1691
MEAN_ANOMALY   = 333.8752

EPHEMERIS_TYPE = 0
CLASSIFICATION_TYPE = U
NORAD_CAT_ID   = 66575
ELEMENT_SET_NO = 999
REV_AT_EPOCH   = 368
BSTAR          = -.25258808E-1
MEAN_MOTION_DOT = -.1999977E-1
MEAN_MOTION_DDOT = 0

CCSDS_OMM_VERS = 2.0
CREATION_DATE  = 
ORIGINATOR     = 

OBJECT_NAME    = STARLINK-35814
OBJECT_ID      = 2025-268V
CENTER_NAME    = EARTH
REF_FRAME      = TEME
TIME_SYSTEM    = UTC
MEAN_ELEMENT_THEORY = SGP/SGP4

EPOCH          = 2025-12-06T14:00:01.999872
MEAN_MOTION    = 15.62103117
ECCENTRICITY   = .00014157
INCLINATION    = 42.9998
RA_OF_ASC_NODE = 157.2439
ARG_OF_PERICENTER = 255.1686
MEAN_ANOMALY   = 338.7965

EPHEMERIS_TYPE = 0
CLASSIFICATION_TYPE = U
NORAD_CAT_ID   = 66576
ELEMENT_SET_NO = 999
REV_AT_EPOCH   = 368
BSTAR          = -.25190537E-1
MEAN_MOTION_DOT = -.1994852E-1
MEAN_MOTION_DDOT = 0

CCSDS_OMM_VERS = 2.0
CREATION_DATE  = 
ORIGINATOR     = 

OBJECT_NAME    = STARLINK-35815
OBJECT_ID      = 2025-268W
CENTER_NAME    = EARTH
REF_FRAME      = TEME
TIME_SYSTEM    = UTC
MEAN_ELEMENT_THEORY = SGP/SGP4

EPOCH          = 2025-12-06T14:00:01.999872
MEAN_MOTION    = 15.62103909
ECCENTRICITY   = .000149
INCLINATION    = 42.9996
RA_OF_ASC_NODE = 157.2392
ARG_OF_PERICENTER = 256.4326
MEAN_ANOMALY   = 339.4495

EPHEMERIS_TYPE = 0
CLASSIFICATION_TYPE = U
NORAD_CAT_ID   = 66577
ELEMENT_SET_NO = 999
REV_AT_EPOCH   = 368
BSTAR          = -.25215512E-1
MEAN_MOTION_DOT = -.1996697E-1
MEAN_MOTION_DDOT = 0

CCSDS_OMM_VERS = 2.0
CREATION_DATE  = 
ORIGINATOR     = 

OBJECT_NAME    = STARLINK-35743
OBJECT_ID      = 2025-268X
CENTER_NAME    = EARTH
REF_FRAME      = TEME
TIME_SYSTEM    = UTC
MEAN_ELEMENT_THEORY = SGP/SGP4

EPOCH          = 2025-12-06T14:00:01.999872
MEAN_MOTION    = 15.62104372
ECCENTRICITY   = .00014448
INCLINATION    = 42.9996
RA_OF_ASC_NODE = 157.2343
ARG_OF_PERICENTER = 255.8923
MEAN_ANOMALY   = 341.9058

EPHEMERIS_TYPE = 0
CLASSIFICATION_TYPE = U
NORAD_CAT_ID   = 66578
ELEMENT_SET_NO = 999
REV_AT_EPOCH   = 368
BSTAR          = -.25205338E-1
MEAN_MOTION_DOT = -.1995989E-1
MEAN_MOTION_DDOT = 0

CCSDS_OMM_VERS = 2.0
CREATION_DATE  = 
ORIGINATOR     = 

OBJECT_NAME    = STARLINK-35868
OBJECT_ID      = 2025-268Y
CENTER_NAME    = EARTH
REF_FRAME      = TEME
TIME_SYSTEM    = UTC
MEAN_ELEMENT_THEORY = SGP/SGP4

EPOCH          = 2025-12-06T14:00:01.999872
MEAN_MOTION    = 15.62106510
ECCENTRICITY   = .00015425
INCLINATION    = 42.9997
RA_OF_ASC_NODE = 157.2291
ARG_OF_PERICENTER = 258.6294
MEAN_ANOMALY   = 341.0845

EPHEMERIS_TYPE = 0
CLASSIFICATION_TYPE = U
NORAD_CAT_ID   = 66579
ELEMENT_SET_NO = 999
REV_AT_EPOCH   = 368
BSTAR          = -.25248415E-1
MEAN_MOTION_DOT = -.1999201E-1
MEAN_MOTION_DDOT = 0

CCSDS_OMM_VERS = 2.0
CREATION_DATE  = 
ORIGINATOR     = 

OBJECT_NAME    = STARLINK-35872
OBJECT_ID      = 2025-268Z
CENTER_NAME    = EARTH
REF_FRAME      = TEME
TIME_SYSTEM    = UTC
MEAN_ELEMENT_THEORY = SGP/SGP4

EPOCH          = 2025-12-06T14:00:01.999872
MEAN_MOTION    = 15.62106655
ECCENTRICITY   = .00014197
INCLINATION    = 42.9999
RA_OF_ASC_NODE = 157.2252
ARG_OF_PERICENTER = 258.0130
MEAN_ANOMALY   = 343.6185

EPHEMERIS_TYPE = 0
CLASSIFICATION_TYPE = U
NORAD_CAT_ID   = 66580
ELEMENT_SET_NO = 999
REV_AT_EPOCH   = 368
BSTAR          = -.25245476E-1
MEAN_MOTION_DOT = -.1998914E-1
MEAN_MOTION_DDOT = 0

CCSDS_OMM_VERS = 2.0
CREATION_DATE  = 
ORIGINATOR     = 

OBJECT_NAME    = STARLINK-35744
OBJECT_ID      = 2025-268AA
CENTER_NAME    = EARTH
REF_FRAME      = TEME
TIME_SYSTEM    = UTC
MEAN_ELEMENT_THEORY = SGP/SGP4

EPOCH          = 2025-12-06T14:00:01.999872
MEAN_MOTION    = 15.62105341
ECCENTRICITY   = .00015333
INCLINATION    = 42.9998
RA_OF_ASC_NODE = 157.2196
ARG_OF_PERICENTER = 259.4380
MEAN_ANOMALY   = 344.1097

EPHEMERIS_TYPE = 0
CLASSIFICATION_TYPE = U
NORAD_CAT_ID   = 66581
ELEMENT_SET_NO = 999
REV_AT_EPOCH   = 363
BSTAR          = -.2521126E-1
MEAN_MOTION_DOT = -.1996533E-1
MEAN_MOTION_DDOT = 0

CCSDS_OMM_VERS = 2.0
CREATION_DATE  = 
ORIGINATOR     = 

OBJECT_NAME    = STARLINK-35746
OBJECT_ID      = 2025-268AB
CENTER_NAME    = EARTH
REF_FRAME      = TEME
TIME_SYSTEM    = UTC
MEAN_ELEMENT_THEORY = SGP/SGP4

EPOCH          = 2025-12-06T14:00:01.999872
MEAN_MOTION    = 15.62106265
ECCENTRICITY   = .00014645
INCLINATION    = 42.9993
RA_OF_ASC_NODE = 157.2146
ARG_OF_PERICENTER = 259.7665
MEAN_ANOMALY   = 345.7001

EPHEMERIS_TYPE = 0
CLASSIFICATION_TYPE = U
NORAD_CAT_ID   = 66582
ELEMENT_SET_NO = 999
REV_AT_EPOCH   = 368
BSTAR          = -.25252918E-1
MEAN_MOTION_DOT = -.1999438E-1
MEAN_MOTION_DDOT = 0

CCSDS_OMM_VERS = 2.0
CREATION_DATE  = 
ORIGINATOR     = 

OBJECT_NAME    = STARLINK-35941
OBJECT_ID      = 2025-268AC
CENTER_NAME    = EARTH
REF_FRAME      = TEME
TIME_SYSTEM    = UTC
MEAN_ELEMENT_THEORY = SGP/SGP4

EPOCH          = 2025-12-06T14:00:01.999872
MEAN_MOTION    = 15.62104737
ECCENTRICITY   = .00015157
INCLINATION    = 42.9993
RA_OF_ASC_NODE = 157.2099
ARG_OF_PERICENTER = 256.6938
MEAN_ANOMALY   = 350.6887

EPHEMERIS_TYPE = 0
CLASSIFICATION_TYPE = U
NORAD_CAT_ID   = 66583
ELEMENT_SET_NO = 999
REV_AT_EPOCH   = 368
BSTAR          = -.25203187E-1
MEAN_MOTION_DOT = -.1995918E-1
MEAN_MOTION_DDOT = 0

CCSDS_OMM_VERS = 2.0
CREATION_DATE  = 
ORIGINATOR     = 

OBJECT_NAME    = STARLINK-35939
OBJECT_ID      = 2025-268AD
CENTER_NAME    = EARTH
REF_FRAME      = TEME
TIME_SYSTEM    = UTC
MEAN_ELEMENT_THEORY = SGP/SGP4

EPOCH          = 2025-12-06T14:00:01.999872
MEAN_MOTION    = 15.62104734
ECCENTRICITY   = .00015894
INCLINATION    = 42.9993
RA_OF_ASC_NODE = 157.2055
ARG_OF_PERICENTER = 258.7349
MEAN_ANOMALY   = 350.5639

EPHEMERIS_TYPE = 0
CLASSIFICATION_TYPE = U
NORAD_CAT_ID   = 66584
ELEMENT_SET_NO = 999
REV_AT_EPOCH   = 368
BSTAR          = -.25197315E-1
MEAN_MOTION_DOT = -.1995566E-1
MEAN_MOTION_DDOT = 0

CCSDS_OMM_VERS = 2.0
CREATION_DATE  = 
ORIGINATOR     = 

OBJECT_NAME    = STARLINK-35963
OBJECT_ID      = 2025-268AE
CENTER_NAME    = EARTH
REF_FRAME      = TEME
TIME_SYSTEM    = UTC
MEAN_ELEMENT_THEORY = SGP/SGP4

EPOCH          = 2025-12-06T14:00:01.999872
MEAN_MOTION    = 15.62102908
ECCENTRICITY   = .00015061
INCLINATION    = 42.9995
RA_OF_ASC_NODE = 157.2006
ARG_OF_PERICENTER = 258.0582
MEAN_ANOMALY   = 353.1622

EPHEMERIS_TYPE = 0
CLASSIFICATION_TYPE = U
NORAD_CAT_ID   = 66585
ELEMENT_SET_NO = 999
REV_AT_EPOCH   = 368
BSTAR          = -.25198757E-1
MEAN_MOTION_DOT = -.1995477E-1
MEAN_MOTION_DDOT = 0

CCSDS_OMM_VERS = 2.0
CREATION_DATE  = 
ORIGINATOR     = 

OBJECT_NAME    = TJS-21
OBJECT_ID      = 2025-269A
CENTER_NAME    = EARTH
REF_FRAME      = TEME
TIME_SYSTEM    = UTC
MEAN_ELEMENT_THEORY = SGP/SGP4

EPOCH          = 2025-12-05T05:53:45.339360
MEAN_MOTION    = 2.00559462
ECCENTRICITY   = .68051288
INCLINATION    = 63.2734
RA_OF_ASC_NODE = 163.1383
ARG_OF_PERICENTER = 269.8052
MEAN_ANOMALY   = 18.6619

EPHEMERIS_TYPE = 0
CLASSIFICATION_TYPE = U
NORAD_CAT_ID   = 66586
ELEMENT_SET_NO = 999
REV_AT_EPOCH   = 29
BSTAR          = -.17798837E-1
MEAN_MOTION_DOT = .1125E-4
MEAN_MOTION_DDOT = 0

